[{"OBJECT_NAME":"YAOGAN-30 11C","OBJECT_ID":"2021-065D","EPOCH":"2026-03-09T22:23:40.743744","MEAN_MOTION":15.02147773,"ECCENTRICITY":0.00031824,"INCLINATION":34.9942,"RA_OF_ASC_NODE":157.3601,"ARG_OF_PERICENTER":128.8602,"MEAN_ANOMALY":231.239,"EPHEMERIS_TYPE":0,"CLASSIFICATION_TYPE":"U","NORAD_CAT_ID":49029,"ELEMENT_SET_NO":999,"REV_AT_EPOCH":25372,"BSTAR":0.00028936186,"MEAN_MOTION_DOT":3.857e-5,"MEAN_MOTION_DDOT":0},{"OBJECT_NAME":"STARLINK-5397","OBJECT_ID":"2022-177BD","EPOCH":"2026-03-09T04:41:47.694624","MEAN_MOTION":15.02538394,"ECCENTRICITY":0.00014349,"INCLINATION":43.0056,"RA_OF_ASC_NODE":122.7795,"ARG_OF_PERICENTER":270.05,"MEAN_ANOMALY":90.0178,"EPHEMERIS_TYPE":0,"CLASSIFICATION_TYPE":"U","NORAD_CAT_ID":54871,"ELEMENT_SET_NO":999,"REV_AT_EPOCH":17703,"BSTAR":-5.8760845e-5,"MEAN_MOTION_DOT":-9.97e-6,"MEAN_MOTION_DDOT":0}]
